[{"OBJECT_NAME":"STARLINK-4433","OBJECT_ID":"2022-099P","EPOCH":"2026-03-09T21:46:27.251040","MEAN_MOTION":15.01254669,"ECCENTRICITY":0.00039682,"INCLINATION":97.6013,"RA_OF_ASC_NODE":190.4337,"ARG_OF_PERICENTER":212.711,"MEAN_ANOMALY":147.3869,"EPHEMERIS_TYPE":0,"CLASSIFICATION_TYPE":"U","NORAD_CAT_ID":53478,"ELEMENT_SET_NO":999,"REV_AT_EPOCH":19601,"BSTAR":-2.406775e-5,"MEAN_MOTION_DOT":-3.68e-6,"MEAN_MOTION_DDOT":0},{"OBJECT_NAME":"SATGUS","OBJECT_ID":"2025-009DJ","EPOCH":"2026-03-09T16:57:39.644640","MEAN_MOTION":14.99840473,"ECCENTRICITY":0.00056702,"INCLINATION":97.7097,"RA_OF_ASC_NODE":150.9679,"ARG_OF_PERICENTER":96.3538,"MEAN_ANOMALY":263.8332,"EPHEMERIS_TYPE":0,"CLASSIFICATION_TYPE":"U","NORAD_CAT_ID":62713,"ELEMENT_SET_NO":999,"REV_AT_EPOCH":6264,"BSTAR":0.00076063433,"MEAN_MOTION_DOT":9.37e-5,"MEAN_MOTION_DDOT":0}]
